{
  "type": "FeatureCollection",
  "features": [
    {
      "type": "Feature",
      "properties": {
        "norad_id": 50032,
        "name": "COSMOS 1408 DEB",
        "group": "cosmos-1408-debris",
        "lat": 4.288143322464745,
        "lon": 49.40543257554163,
        "alt_km": 442.3840669454021,
        "timestamp": "2025-12-22T04:03:39.439591+00:00",
        "meta_object_name": "COSMOS 1408 DEB",
        "meta_object_id": "1982-092RU",
        "meta_epoch": "2025-12-21T04:44:15.700416",
        "meta_mean_motion": 15.45771995,
        "meta_eccentricity": 0.00160807,
        "meta_inclination": 82.5635,
        "meta_ra_of_asc_node": 49.8404,
        "meta_arg_of_pericenter": 177.0061,
        "meta_mean_anomaly": 183.1287,
        "meta_ephemeris_type": 0,
        "meta_classification_type": "U",
        "meta_norad_cat_id": 50032,
        "meta_element_set_no": 999,
        "meta_rev_at_epoch": 22734,
        "meta_bstar": 7.6660607e-05,
        "meta_mean_motion_dot": 3.769e-05,
        "meta_mean_motion_ddot": 0,
        "tle_line1": "1 50032U 82092RU  25355.19740394  .00003769  00000+0  76661-4 0  9992",
        "tle_line2": "2 50032  82.5635  49.8404 0016080 177.0061 183.1287 15.45771995227348"
      },
      "geometry": {
        "type": "Point",
        "coordinates": [
          49.40543257554163,
          4.288143322464745
        ]
      }
    },
    {
      "type": "Feature",
      "properties": {
        "norad_id": 50058,
        "name": "COSMOS 1408 DEB",
        "group": "cosmos-1408-debris",
        "lat": 60.87710855112866,
        "lon": -133.99880998136746,
        "alt_km": 361.6414165468641,
        "timestamp": "2025-12-22T04:03:39.439612+00:00",
        "meta_object_name": "COSMOS 1408 DEB",
        "meta_object_id": "1982-092SW",
        "meta_epoch": "2025-12-21T15:16:45.728832",
        "meta_mean_motion": 15.64603734,
        "meta_eccentricity": 0.00161,
        "meta_inclination": 82.6123,
        "meta_ra_of_asc_node": 60.027,
        "meta_arg_of_pericenter": 68.7311,
        "meta_mean_anomaly": 291.5665,
        "meta_ephemeris_type": 0,
        "meta_classification_type": "U",
        "meta_norad_cat_id": 50058,
        "meta_element_set_no": 999,
        "meta_rev_at_epoch": 22943,
        "meta_bstar": 0.00028478,
        "meta_mean_motion_dot": 0.00027752,
        "meta_mean_motion_ddot": 0,
        "tle_line1": "1 50058U 82092SW  25355.63664038  .00027752  00000+0  28478-3 0  9999",
        "tle_line2": "2 50058  82.6123  60.0270 0016100  68.7311 291.5665 15.64603734229434"
      },
      "geometry": {
        "type": "Point",
        "coordinates": [
          -133.99880998136746,
          60.87710855112866
        ]
      }
    },
    {
      "type": "Feature",
      "properties": {
        "norad_id": 50404,
        "name": "COSMOS 1408 DEB",
        "group": "cosmos-1408-debris",
        "lat": -21.53171272911482,
        "lon": -157.72922233065083,
        "alt_km": 640.7728198354062,
        "timestamp": "2025-12-22T04:03:39.439625+00:00",
        "meta_object_name": "COSMOS 1408 DEB",
        "meta_object_id": "1982-092ADS",
        "meta_epoch": "2025-12-21T15:28:45.909120",
        "meta_mean_motion": 15.15078556,
        "meta_eccentricity": 0.0168442,
        "meta_inclination": 82.2035,
        "meta_ra_of_asc_node": 205.9075,
        "meta_arg_of_pericenter": 168.3631,
        "meta_mean_anomaly": 192.1574,
        "meta_ephemeris_type": 0,
        "meta_classification_type": "U",
        "meta_norad_cat_id": 50404,
        "meta_element_set_no": 999,
        "meta_rev_at_epoch": 21328,
        "meta_bstar": 0.0028703,
        "meta_mean_motion_dot": 0.00077658,
        "meta_mean_motion_ddot": 0,
        "tle_line1": "1 50404U 82092ADS 25355.64497580  .00077658  00000+0  28703-2 0  9991",
        "tle_line2": "2 50404  82.2035 205.9075 0168442 168.3631 192.1574 15.15078556213284"
      },
      "geometry": {
        "type": "Point",
        "coordinates": [
          -157.72922233065083,
          -21.53171272911482
        ]
      }
    },
    {
      "type": "Feature",
      "properties": {
        "norad_id": 50621,
        "name": "COSMOS 1408 DEB",
        "group": "cosmos-1408-debris",
        "lat": -60.33024049725739,
        "lon": -102.3952710940908,
        "alt_km": 413.82896603226345,
        "timestamp": "2025-12-22T04:03:39.439637+00:00",
        "meta_object_name": "COSMOS 1408 DEB",
        "meta_object_id": "1982-092ALR",
        "meta_epoch": "2025-12-21T16:14:04.046208",
        "meta_mean_motion": 15.57088475,
        "meta_eccentricity": 0.0029057,
        "meta_inclination": 82.5698,
        "meta_ra_of_asc_node": 64.8749,
        "meta_arg_of_pericenter": 120.1733,
        "meta_mean_anomaly": 240.2407,
        "meta_ephemeris_type": 0,
        "meta_classification_type": "U",
        "meta_norad_cat_id": 50621,
        "meta_element_set_no": 999,
        "meta_rev_at_epoch": 22389,
        "meta_bstar": 0.00031041,
        "meta_mean_motion_dot": 0.00022981,
        "meta_mean_motion_ddot": 0,
        "tle_line1": "1 50621U 82092ALR 25355.67643572  .00022981  00000+0  31041-3 0  9998",
        "tle_line2": "2 50621  82.5698  64.8749 0029057 120.1733 240.2407 15.57088475223895"
      },
      "geometry": {
        "type": "Point",
        "coordinates": [
          -102.3952710940908,
          -60.33024049725739
        ]
      }
    }
  ]
}